LEMUR-2-PETERG          
1 42841U 17042S   26068.48235713  .00023240  00000+0  81076-3 0  9993
2 42841  97.3980 253.6596 0003700 341.6938  18.4169 15.29611459473171
STARLINK-34721          
1 65039U 25161AA  26068.88039749  .00025051  00000+0  85485-3 0  9993
2 65039  53.1600 292.9834 0001180 167.4427 192.6603 15.30208248 34263
